{
  "type": "FeatureCollection",
  "features": [
    {
      "type": "Feature",
      "id": 0,
      "geometry": {
        "type": "Point",
        "coordinates": [
          -92.10657870015,
          46.78327309923
        ]
      },
      "properties": {
        "FID": 0,
        "NameKey": "Duluth - Saint Louis - MN",
        "FREQUENCY": 1,
        "DisplayName": "Duluth - Saint Louis - MN",
        "ProjectCount": 1,
        "LinkedProjectCount": 1,
        "Interactive": false,
        "TopProjectType": "Additional GIS Support Services",
        "ProjectTypes": "Additional GIS Support Services"
      }
    },
    {
      "type": "Feature",
      "id": 1,
      "geometry": {
        "type": "Point",
        "coordinates": [
          -105.51360819986,
          39.74248809942
        ]
      },
      "properties": {
        "FID": 1,
        "NameKey": "Idaho Springs - Clear Creek - CO",
        "FREQUENCY": 1,
        "DisplayName": "Idaho Springs - Clear Creek - CO",
        "ProjectCount": 1,
        "LinkedProjectCount": 0,
        "Interactive": false,
        "TopProjectType": "Urban Simulation",
        "ProjectTypes": "Urban Simulation"
      }
    },
    {
      "type": "Feature",
      "id": 2,
      "geometry": {
        "type": "Point",
        "coordinates": [
          -105.16859770042,
          39.95276339928
        ]
      },
      "properties": {
        "FID": 2,
        "NameKey": "Superior - Boulder - CO",
        "FREQUENCY": 1,
        "DisplayName": "Superior - Boulder - CO",
        "ProjectCount": 1,
        "LinkedProjectCount": 0,
        "Interactive": false,
        "TopProjectType": "Urban Simulation",
        "ProjectTypes": "Urban Simulation"
      }
    },
    {
      "type": "Feature",
      "id": 3,
      "geometry": {
        "type": "Point",
        "coordinates": [
          -79.38321696907,
          43.65485714257
        ]
      },
      "properties": {
        "FID": 3,
        "NameKey": "City Of Toronto - Ontario",
        "FREQUENCY": 5,
        "DisplayName": "City Of Toronto - Ontario",
        "ProjectCount": 5,
        "LinkedProjectCount": 1,
        "Interactive": false,
        "TopProjectType": "Webmaps, Cartography & Visual Storytelling",
        "ProjectTypes": "Webmaps, Cartography & Visual Storytelling, Urban Simulation, Site Selection, Logistics & Routing"
      }
    },
    {
      "type": "Feature",
      "id": 4,
      "geometry": {
        "type": "Point",
        "coordinates": [
          -63.60187606739,
          44.64875616029
        ]
      },
      "properties": {
        "FID": 4,
        "NameKey": "Halifax - Nova Scotia",
        "FREQUENCY": 1,
        "DisplayName": "Halifax - Nova Scotia",
        "ProjectCount": 1,
        "LinkedProjectCount": 0,
        "Interactive": false,
        "TopProjectType": "Webmaps, Cartography & Visual Storytelling",
        "ProjectTypes": "Webmaps, Cartography & Visual Storytelling"
      }
    },
    {
      "type": "Feature",
      "id": 5,
      "geometry": {
        "type": "Point",
        "coordinates": [
          -66.64558559576,
          45.95539095581
        ]
      },
      "properties": {
        "FID": 5,
        "NameKey": "Fredericton - New Brunswick",
        "FREQUENCY": 1,
        "DisplayName": "Fredericton - New Brunswick",
        "ProjectCount": 1,
        "LinkedProjectCount": 0,
        "Interactive": false,
        "TopProjectType": "Webmaps, Cartography & Visual Storytelling",
        "ProjectTypes": "Webmaps, Cartography & Visual Storytelling"
      }
    },
    {
      "type": "Feature",
      "id": 6,
      "geometry": {
        "type": "Point",
        "coordinates": [
          -115.75889647576,
          49.51548579517
        ]
      },
      "properties": {
        "FID": 6,
        "NameKey": "Cranbrook",
        "FREQUENCY": 3,
        "DisplayName": "Cranbrook",
        "ProjectCount": 3,
        "LinkedProjectCount": 0,
        "Interactive": false,
        "TopProjectType": "Site Selection, Logistics & Routing",
        "ProjectTypes": "Site Selection, Logistics & Routing, Urban Simulation"
      }
    },
    {
      "type": "Feature",
      "id": 7,
      "geometry": {
        "type": "Point",
        "coordinates": [
          -117.27678507437,
          49.19161500159
        ]
      },
      "properties": {
        "FID": 7,
        "NameKey": "Salmo",
        "FREQUENCY": 1,
        "DisplayName": "Salmo",
        "ProjectCount": 1,
        "LinkedProjectCount": 0,
        "Interactive": false,
        "TopProjectType": "Urban Simulation",
        "ProjectTypes": "Urban Simulation"
      }
    },
    {
      "type": "Feature",
      "id": 8,
      "geometry": {
        "type": "Point",
        "coordinates": [
          -113.97749989992,
          50.72611110036
        ]
      },
      "properties": {
        "FID": 8,
        "NameKey": "Okotoks - Alberta",
        "FREQUENCY": 1,
        "DisplayName": "Okotoks - Alberta",
        "ProjectCount": 1,
        "LinkedProjectCount": 0,
        "Interactive": false,
        "TopProjectType": "Urban Simulation",
        "ProjectTypes": "Urban Simulation"
      }
    },
    {
      "type": "Feature",
      "id": 9,
      "geometry": {
        "type": "Point",
        "coordinates": [
          -123.3641101634,
          48.42717378913
        ]
      },
      "properties": {
        "FID": 9,
        "NameKey": "Victoria",
        "FREQUENCY": 10,
        "DisplayName": "Victoria",
        "ProjectCount": 10,
        "LinkedProjectCount": 2,
        "Interactive": false,
        "TopProjectType": "Urban Simulation",
        "ProjectTypes": "Urban Simulation, Uncategorized, Additional GIS Support Services"
      }
    },
    {
      "type": "Feature",
      "id": 10,
      "geometry": {
        "type": "Point",
        "coordinates": [
          -123.49651928544,
          48.43207754835
        ]
      },
      "properties": {
        "FID": 10,
        "NameKey": "Colwood",
        "FREQUENCY": 1,
        "DisplayName": "Colwood",
        "ProjectCount": 1,
        "LinkedProjectCount": 0,
        "Interactive": false,
        "TopProjectType": "Urban Simulation",
        "ProjectTypes": "Urban Simulation"
      }
    },
    {
      "type": "Feature",
      "id": 11,
      "geometry": {
        "type": "Point",
        "coordinates": [
          -123.38796882549,
          48.48784862239
        ]
      },
      "properties": {
        "FID": 11,
        "NameKey": "Saanich",
        "FREQUENCY": 1,
        "DisplayName": "Saanich",
        "ProjectCount": 1,
        "LinkedProjectCount": 0,
        "Interactive": false,
        "TopProjectType": "Urban Simulation",
        "ProjectTypes": "Urban Simulation"
      }
    },
    {
      "type": "Feature",
      "id": 12,
      "geometry": {
        "type": "Point",
        "coordinates": [
          -123.72791585605,
          48.38227961338
        ]
      },
      "properties": {
        "FID": 12,
        "NameKey": "Sooke",
        "FREQUENCY": 1,
        "DisplayName": "Sooke",
        "ProjectCount": 1,
        "LinkedProjectCount": 0,
        "Interactive": false,
        "TopProjectType": "Urban Simulation",
        "ProjectTypes": "Urban Simulation"
      }
    },
    {
      "type": "Feature",
      "id": 13,
      "geometry": {
        "type": "Point",
        "coordinates": [
          -123.49741875209,
          48.45660201345
        ]
      },
      "properties": {
        "FID": 13,
        "NameKey": "Langford",
        "FREQUENCY": 1,
        "DisplayName": "Langford",
        "ProjectCount": 1,
        "LinkedProjectCount": 0,
        "Interactive": false,
        "TopProjectType": "Urban Simulation",
        "ProjectTypes": "Urban Simulation"
      }
    },
    {
      "type": "Feature",
      "id": 14,
      "geometry": {
        "type": "Point",
        "coordinates": [
          -123.39705385796,
          48.56690352443
        ]
      },
      "properties": {
        "FID": 14,
        "NameKey": "Central Saanich",
        "FREQUENCY": 2,
        "DisplayName": "Central Saanich",
        "ProjectCount": 2,
        "LinkedProjectCount": 0,
        "Interactive": false,
        "TopProjectType": "Urban Simulation",
        "ProjectTypes": "Urban Simulation, Webmaps, Cartography & Visual Storytelling"
      }
    },
    {
      "type": "Feature",
      "id": 15,
      "geometry": {
        "type": "Point",
        "coordinates": [
          -123.41669990008,
          48.59999999992
        ]
      },
      "properties": {
        "FID": 15,
        "NameKey": "Saanichton - British Columbia",
        "FREQUENCY": 1,
        "DisplayName": "Saanichton - British Columbia",
        "ProjectCount": 0,
        "LinkedProjectCount": 0,
        "Interactive": false,
        "TopProjectType": "",
        "ProjectTypes": ""
      }
    },
    {
      "type": "Feature",
      "id": 16,
      "geometry": {
        "type": "Point",
        "coordinates": [
          -123.42146294566,
          48.62172342727
        ]
      },
      "properties": {
        "FID": 16,
        "NameKey": "North Saanich",
        "FREQUENCY": 1,
        "DisplayName": "North Saanich",
        "ProjectCount": 1,
        "LinkedProjectCount": 0,
        "Interactive": false,
        "TopProjectType": "Urban Simulation",
        "ProjectTypes": "Urban Simulation"
      }
    },
    {
      "type": "Feature",
      "id": 17,
      "geometry": {
        "type": "Point",
        "coordinates": [
          -123.39999989924,
          48.64999999998
        ]
      },
      "properties": {
        "FID": 17,
        "NameKey": "Sidney",
        "FREQUENCY": 1,
        "DisplayName": "Sidney",
        "ProjectCount": 1,
        "LinkedProjectCount": 0,
        "Interactive": false,
        "TopProjectType": "Urban Simulation",
        "ProjectTypes": "Urban Simulation"
      }
    },
    {
      "type": "Feature",
      "id": 18,
      "geometry": {
        "type": "Point",
        "coordinates": [
          -114.05749989963,
          51.04583329999
        ]
      },
      "properties": {
        "FID": 18,
        "NameKey": "Calgary - Alberta",
        "FREQUENCY": 1,
        "DisplayName": "Calgary - Alberta",
        "ProjectCount": 1,
        "LinkedProjectCount": 1,
        "Interactive": false,
        "TopProjectType": "Site Selection, Logistics & Routing",
        "ProjectTypes": "Site Selection, Logistics & Routing"
      }
    },
    {
      "type": "Feature",
      "id": 19,
      "geometry": {
        "type": "Point",
        "coordinates": [
          -122.32131459358,
          49.05639936278
        ]
      },
      "properties": {
        "FID": 19,
        "NameKey": "Abbotsford",
        "FREQUENCY": 3,
        "DisplayName": "Abbotsford",
        "ProjectCount": 3,
        "LinkedProjectCount": 0,
        "Interactive": false,
        "TopProjectType": "Webmaps, Cartography & Visual Storytelling",
        "ProjectTypes": "Webmaps, Cartography & Visual Storytelling, Carbon and Energy Modelling, Site Selection, Logistics & Routing"
      }
    },
    {
      "type": "Feature",
      "id": 20,
      "geometry": {
        "type": "Point",
        "coordinates": [
          -121.94162731154,
          49.17499846135
        ]
      },
      "properties": {
        "FID": 20,
        "NameKey": "Chilliwack",
        "FREQUENCY": 5,
        "DisplayName": "Chilliwack",
        "ProjectCount": 5,
        "LinkedProjectCount": 0,
        "Interactive": false,
        "TopProjectType": "Remote Sensing",
        "ProjectTypes": "Remote Sensing"
      }
    },
    {
      "type": "Feature",
      "id": 21,
      "geometry": {
        "type": "Point",
        "coordinates": [
          -119.63138167921,
          49.82856416053
        ]
      },
      "properties": {
        "FID": 21,
        "NameKey": "Westbank - British Columbia",
        "FREQUENCY": 2,
        "DisplayName": "Westbank - British Columbia",
        "ProjectCount": 0,
        "LinkedProjectCount": 0,
        "Interactive": false,
        "TopProjectType": "",
        "ProjectTypes": ""
      }
    },
    {
      "type": "Feature",
      "id": 22,
      "geometry": {
        "type": "Point",
        "coordinates": [
          -122.30369532633,
          49.13761079666
        ]
      },
      "properties": {
        "FID": 22,
        "NameKey": "Mission",
        "FREQUENCY": 1,
        "DisplayName": "Mission",
        "ProjectCount": 1,
        "LinkedProjectCount": 0,
        "Interactive": false,
        "TopProjectType": "Webmaps, Cartography & Visual Storytelling",
        "ProjectTypes": "Webmaps, Cartography & Visual Storytelling"
      }
    },
    {
      "type": "Feature",
      "id": 23,
      "geometry": {
        "type": "Point",
        "coordinates": [
          -122.79616310769,
          49.02516830093
        ]
      },
      "properties": {
        "FID": 23,
        "NameKey": "White Rock",
        "FREQUENCY": 1,
        "DisplayName": "White Rock",
        "ProjectCount": 1,
        "LinkedProjectCount": 0,
        "Interactive": false,
        "TopProjectType": "Additional GIS Services",
        "ProjectTypes": "Additional GIS Services"
      }
    },
    {
      "type": "Feature",
      "id": 24,
      "geometry": {
        "type": "Point",
        "coordinates": [
          -122.65883665275,
          49.10378007453
        ]
      },
      "properties": {
        "FID": 24,
        "NameKey": "Langley - City",
        "FREQUENCY": 2,
        "DisplayName": "Langley - City",
        "ProjectCount": 2,
        "LinkedProjectCount": 0,
        "Interactive": false,
        "TopProjectType": "Urban Simulation",
        "ProjectTypes": "Urban Simulation"
      }
    },
    {
      "type": "Feature",
      "id": 25,
      "geometry": {
        "type": "Point",
        "coordinates": [
          -123.0936583144,
          49.03571418621
        ]
      },
      "properties": {
        "FID": 25,
        "NameKey": "Tsawwassen",
        "FREQUENCY": 1,
        "DisplayName": "Tsawwassen",
        "ProjectCount": 1,
        "LinkedProjectCount": 0,
        "Interactive": false,
        "TopProjectType": "Additional GIS Support Services",
        "ProjectTypes": "Additional GIS Support Services"
      }
    },
    {
      "type": "Feature",
      "id": 26,
      "geometry": {
        "type": "Point",
        "coordinates": [
          -123.70178259783,
          48.85106267365
        ]
      },
      "properties": {
        "FID": 26,
        "NameKey": "Westholme - British Columbia",
        "FREQUENCY": 1,
        "DisplayName": "Westholme - British Columbia",
        "ProjectCount": 0,
        "LinkedProjectCount": 0,
        "Interactive": false,
        "TopProjectType": "",
        "ProjectTypes": ""
      }
    },
    {
      "type": "Feature",
      "id": 27,
      "geometry": {
        "type": "Point",
        "coordinates": [
          -122.59794609192,
          49.21740747918
        ]
      },
      "properties": {
        "FID": 27,
        "NameKey": "Maple Ridge",
        "FREQUENCY": 2,
        "DisplayName": "Maple Ridge",
        "ProjectCount": 2,
        "LinkedProjectCount": 0,
        "Interactive": false,
        "TopProjectType": "Additional GIS Support Services",
        "ProjectTypes": "Additional GIS Support Services"
      }
    },
    {
      "type": "Feature",
      "id": 28,
      "geometry": {
        "type": "Point",
        "coordinates": [
          -123.07777770051,
          49.09166660002
        ]
      },
      "properties": {
        "FID": 28,
        "NameKey": "Ladner - British Columbia",
        "FREQUENCY": 2,
        "DisplayName": "Ladner - British Columbia",
        "ProjectCount": 0,
        "LinkedProjectCount": 0,
        "Interactive": false,
        "TopProjectType": "",
        "ProjectTypes": ""
      }
    },
    {
      "type": "Feature",
      "id": 29,
      "geometry": {
        "type": "Point",
        "coordinates": [
          -122.68629553605,
          49.21715227229
        ]
      },
      "properties": {
        "FID": 29,
        "NameKey": "Pitt Meadows",
        "FREQUENCY": 1,
        "DisplayName": "Pitt Meadows",
        "ProjectCount": 1,
        "LinkedProjectCount": 0,
        "Interactive": false,
        "TopProjectType": "Urban Simulation",
        "ProjectTypes": "Urban Simulation"
      }
    },
    {
      "type": "Feature",
      "id": 30,
      "geometry": {
        "type": "Point",
        "coordinates": [
          -122.82777119636,
          49.17447915728
        ]
      },
      "properties": {
        "FID": 30,
        "NameKey": "Surrey",
        "FREQUENCY": 10,
        "DisplayName": "Surrey",
        "ProjectCount": 10,
        "LinkedProjectCount": 0,
        "Interactive": false,
        "TopProjectType": "Carbon and Energy Modelling",
        "ProjectTypes": "Carbon and Energy Modelling, Urban Simulation, Additional GIS Support Services, Site Selection, Logistics & Routing"
      }
    },
    {
      "type": "Feature",
      "id": 31,
      "geometry": {
        "type": "Point",
        "coordinates": [
          -122.91669999941,
          49.21669990017
        ]
      },
      "properties": {
        "FID": 31,
        "NameKey": "New Westminster",
        "FREQUENCY": 2,
        "DisplayName": "New Westminster",
        "ProjectCount": 2,
        "LinkedProjectCount": 0,
        "Interactive": false,
        "TopProjectType": "Site Selection, Logistics & Routing",
        "ProjectTypes": "Site Selection, Logistics & Routing"
      }
    },
    {
      "type": "Feature",
      "id": 32,
      "geometry": {
        "type": "Point",
        "coordinates": [
          -123.15820457068,
          49.15385688549
        ]
      },
      "properties": {
        "FID": 32,
        "NameKey": "Richmond",
        "FREQUENCY": 3,
        "DisplayName": "Richmond",
        "ProjectCount": 3,
        "LinkedProjectCount": 0,
        "Interactive": false,
        "TopProjectType": "Urban Simulation",
        "ProjectTypes": "Urban Simulation, Carbon and Energy Modelling, Webmaps, Cartography & Visual Storytelling"
      }
    },
    {
      "type": "Feature",
      "id": 33,
      "geometry": {
        "type": "Point",
        "coordinates": [
          -119.26888710141,
          50.26422417199
        ]
      },
      "properties": {
        "FID": 33,
        "NameKey": "Vernon",
        "FREQUENCY": 1,
        "DisplayName": "Vernon",
        "ProjectCount": 1,
        "LinkedProjectCount": 0,
        "Interactive": false,
        "TopProjectType": "Carbon and Energy Modelling",
        "ProjectTypes": "Carbon and Energy Modelling"
      }
    },
    {
      "type": "Feature",
      "id": 34,
      "geometry": {
        "type": "Point",
        "coordinates": [
          -122.86762527294,
          49.27864655267
        ]
      },
      "properties": {
        "FID": 34,
        "NameKey": "Port Moody",
        "FREQUENCY": 1,
        "DisplayName": "Port Moody",
        "ProjectCount": 1,
        "LinkedProjectCount": 0,
        "Interactive": false,
        "TopProjectType": "Urban Simulation",
        "ProjectTypes": "Urban Simulation"
      }
    },
    {
      "type": "Feature",
      "id": 35,
      "geometry": {
        "type": "Point",
        "coordinates": [
          -122.9617071096,
          49.25208704481
        ]
      },
      "properties": {
        "FID": 35,
        "NameKey": "Burnaby",
        "FREQUENCY": 5,
        "DisplayName": "Burnaby",
        "ProjectCount": 5,
        "LinkedProjectCount": 0,
        "Interactive": false,
        "TopProjectType": "Additional GIS Support Services",
        "ProjectTypes": "Additional GIS Support Services, Urban Simulation, Webmaps, Cartography & Visual Storytelling, Carbon and Energy Modelling"
      }
    },
    {
      "type": "Feature",
      "id": 36,
      "geometry": {
        "type": "Point",
        "coordinates": [
          -123.11538738462,
          49.24479865956
        ]
      },
      "properties": {
        "FID": 36,
        "NameKey": "Vancouver",
        "FREQUENCY": 28,
        "DisplayName": "Vancouver",
        "ProjectCount": 28,
        "LinkedProjectCount": 5,
        "Interactive": false,
        "TopProjectType": "Urban Simulation",
        "ProjectTypes": "Urban Simulation, Webmaps, Cartography & Visual Storytelling, Carbon and Energy Modelling, Additional GIS Support Services"
      }
    },
    {
      "type": "Feature",
      "id": 37,
      "geometry": {
        "type": "Point",
        "coordinates": [
          -123.93914729916,
          49.16592363739
        ]
      },
      "properties": {
        "FID": 37,
        "NameKey": "Nanaimo",
        "FREQUENCY": 4,
        "DisplayName": "Nanaimo",
        "ProjectCount": 4,
        "LinkedProjectCount": 1,
        "Interactive": false,
        "TopProjectType": "Urban Simulation",
        "ProjectTypes": "Urban Simulation"
      }
    },
    {
      "type": "Feature",
      "id": 38,
      "geometry": {
        "type": "Point",
        "coordinates": [
          -123.76223497743,
          49.47939455122
        ]
      },
      "properties": {
        "FID": 38,
        "NameKey": "Sechelt",
        "FREQUENCY": 1,
        "DisplayName": "Sechelt",
        "ProjectCount": 1,
        "LinkedProjectCount": 0,
        "Interactive": false,
        "TopProjectType": "Additional GIS Support Services",
        "ProjectTypes": "Additional GIS Support Services"
      }
    },
    {
      "type": "Feature",
      "id": 39,
      "geometry": {
        "type": "Point",
        "coordinates": [
          -118.98023112709,
          50.83501756742
        ]
      },
      "properties": {
        "FID": 39,
        "NameKey": "Sicamous",
        "FREQUENCY": 1,
        "DisplayName": "Sicamous",
        "ProjectCount": 1,
        "LinkedProjectCount": 0,
        "Interactive": false,
        "TopProjectType": "Urban Simulation",
        "ProjectTypes": "Urban Simulation"
      }
    },
    {
      "type": "Feature",
      "id": 40,
      "geometry": {
        "type": "Point",
        "coordinates": [
          -120.34772932664,
          50.67825054119
        ]
      },
      "properties": {
        "FID": 40,
        "NameKey": "Kamloops",
        "FREQUENCY": 6,
        "DisplayName": "Kamloops",
        "ProjectCount": 6,
        "LinkedProjectCount": 0,
        "Interactive": false,
        "TopProjectType": "Carbon and Energy Modelling",
        "ProjectTypes": "Carbon and Energy Modelling, Webmaps, Cartography & Visual Storytelling, Urban Simulation, Additional GIS Support Services"
      }
    },
    {
      "type": "Feature",
      "id": 41,
      "geometry": {
        "type": "Point",
        "coordinates": [
          -122.9554403745,
          50.11747372381
        ]
      },
      "properties": {
        "FID": 41,
        "NameKey": "Whistler",
        "FREQUENCY": 2,
        "DisplayName": "Whistler",
        "ProjectCount": 2,
        "LinkedProjectCount": 0,
        "Interactive": false,
        "TopProjectType": "Remote Sensing",
        "ProjectTypes": "Remote Sensing"
      }
    },
    {
      "type": "Feature",
      "id": 42,
      "geometry": {
        "type": "Point",
        "coordinates": [
          -124.9277945392,
          49.67385762734
        ]
      },
      "properties": {
        "FID": 42,
        "NameKey": "Comox",
        "FREQUENCY": 2,
        "DisplayName": "Comox",
        "ProjectCount": 2,
        "LinkedProjectCount": 0,
        "Interactive": false,
        "TopProjectType": "Urban Simulation",
        "ProjectTypes": "Urban Simulation, Webmaps, Cartography & Visual Storytelling"
      }
    },
    {
      "type": "Feature",
      "id": 43,
      "geometry": {
        "type": "Point",
        "coordinates": [
          -124.99897439669,
          49.68891553219
        ]
      },
      "properties": {
        "FID": 43,
        "NameKey": "Courtenay",
        "FREQUENCY": 1,
        "DisplayName": "Courtenay",
        "ProjectCount": 1,
        "LinkedProjectCount": 0,
        "Interactive": false,
        "TopProjectType": "Urban Simulation",
        "ProjectTypes": "Urban Simulation"
      }
    },
    {
      "type": "Feature",
      "id": 44,
      "geometry": {
        "type": "Point",
        "coordinates": [
          -124.54649650107,
          49.87199955566
        ]
      },
      "properties": {
        "FID": 44,
        "NameKey": "Powell River",
        "FREQUENCY": 1,
        "DisplayName": "Powell River",
        "ProjectCount": 1,
        "LinkedProjectCount": 0,
        "Interactive": false,
        "TopProjectType": "Remote Sensing",
        "ProjectTypes": "Remote Sensing"
      }
    },
    {
      "type": "Feature",
      "id": 45,
      "geometry": {
        "type": "Point",
        "coordinates": [
          -121.94406886424,
          50.68025916617
        ]
      },
      "properties": {
        "FID": 45,
        "NameKey": "Lillooet 1 - British Columbia",
        "FREQUENCY": 1,
        "DisplayName": "Lillooet 1 - British Columbia",
        "ProjectCount": 0,
        "LinkedProjectCount": 0,
        "Interactive": false,
        "TopProjectType": "",
        "ProjectTypes": ""
      }
    },
    {
      "type": "Feature",
      "id": 46,
      "geometry": {
        "type": "Point",
        "coordinates": [
          -125.24166660033,
          50.01666660035
        ]
      },
      "properties": {
        "FID": 46,
        "NameKey": "Campbell River",
        "FREQUENCY": 1,
        "DisplayName": "Campbell River",
        "ProjectCount": 1,
        "LinkedProjectCount": 0,
        "Interactive": false,
        "TopProjectType": "Urban Simulation",
        "ProjectTypes": "Urban Simulation"
      }
    },
    {
      "type": "Feature",
      "id": 47,
      "geometry": {
        "type": "Point",
        "coordinates": [
          -114.36911062062,
          62.45358486341
        ]
      },
      "properties": {
        "FID": 47,
        "NameKey": "Yellowknife - Northwest Territories",
        "FREQUENCY": 1,
        "DisplayName": "Yellowknife - Northwest Territories",
        "ProjectCount": 1,
        "LinkedProjectCount": 0,
        "Interactive": false,
        "TopProjectType": "Urban Simulation",
        "ProjectTypes": "Urban Simulation"
      }
    },
    {
      "type": "Feature",
      "id": 48,
      "geometry": {
        "type": "Point",
        "coordinates": [
          -123.00466137665194,
          49.36380620901514
        ]
      },
      "properties": {
        "FID": 48,
        "NameKey": "North Vancouver - British Columbia",
        "FREQUENCY": 2,
        "DisplayName": "North Vancouver - British Columbia",
        "ProjectCount": 0,
        "LinkedProjectCount": 0,
        "Interactive": false,
        "TopProjectType": "",
        "ProjectTypes": ""
      }
    },
    {
      "type": "Feature",
      "id": 49,
      "geometry": {
        "type": "Point",
        "coordinates": [
          -122.54816180781,
          49.08447261901
        ]
      },
      "properties": {
        "FID": 49,
        "NameKey": "Langley - District",
        "FREQUENCY": 2,
        "DisplayName": "Langley - Township",
        "ProjectCount": 2,
        "LinkedProjectCount": 1,
        "Interactive": false,
        "TopProjectType": "Carbon and Energy Modelling",
        "ProjectTypes": "Carbon and Energy Modelling, Uncategorized"
      }
    },
    {
      "type": "Feature",
      "id": 50,
      "geometry": {
        "type": "Point",
        "coordinates": [
          -123.24976859576,
          49.26673475049
        ]
      },
      "properties": {
        "FID": 50,
        "NameKey": "UBC",
        "FREQUENCY": 5,
        "DisplayName": "UBC",
        "ProjectCount": 5,
        "LinkedProjectCount": 0,
        "Interactive": false,
        "TopProjectType": "Additional GIS Support Services",
        "ProjectTypes": "Additional GIS Support Services, Webmaps, Cartography & Visual Storytelling"
      }
    },
    {
      "type": "Feature",
      "id": 51,
      "geometry": {
        "type": "Point",
        "coordinates": [
          -123.070118849,
          49.31739753708
        ]
      },
      "properties": {
        "FID": 51,
        "NameKey": "North Vancouver - City",
        "FREQUENCY": 1,
        "DisplayName": "North Vancouver - City",
        "ProjectCount": 1,
        "LinkedProjectCount": 0,
        "Interactive": false,
        "TopProjectType": "Urban Simulation",
        "ProjectTypes": "Urban Simulation"
      }
    },
    {
      "type": "Feature",
      "id": 52,
      "geometry": {
        "type": "Point",
        "coordinates": [
          -124.08429824673,
          49.25085417319
        ]
      },
      "properties": {
        "FID": 52,
        "NameKey": "Lantzville",
        "FREQUENCY": 1,
        "DisplayName": "Lantzville",
        "ProjectCount": 1,
        "LinkedProjectCount": 0,
        "Interactive": false,
        "TopProjectType": "Additional GIS Support Services",
        "ProjectTypes": "Additional GIS Support Services"
      }
    },
    {
      "type": "Feature",
      "properties": {
        "FID": 53,
        "NameKey": "Delta",
        "DisplayName": "Delta",
        "FREQUENCY": 2,
        "ProjectCount": 2,
        "LinkedProjectCount": 0,
        "Interactive": false,
        "TopProjectType": "Remote Sensing",
        "ProjectTypes": "Remote Sensing",
        "GeneratedPoint": true
      },
      "geometry": {
        "type": "Point",
        "coordinates": [
          -123.09977818303156,
          49.09803703484987
        ]
      }
    },
    {
      "type": "Feature",
      "properties": {
        "FID": 54,
        "NameKey": "West Kelowna",
        "DisplayName": "West Kelowna",
        "FREQUENCY": 2,
        "ProjectCount": 2,
        "LinkedProjectCount": 0,
        "Interactive": false,
        "TopProjectType": "Webmaps, Cartography & Visual Storytelling",
        "ProjectTypes": "Webmaps, Cartography & Visual Storytelling, Urban Simulation",
        "GeneratedPoint": true
      },
      "geometry": {
        "type": "Point",
        "coordinates": [
          -119.6167858980594,
          49.866125722196685
        ]
      }
    },
    {
      "type": "Feature",
      "properties": {
        "FID": 55,
        "NameKey": "SLRD - EA B",
        "DisplayName": "SLRD - EA B",
        "FREQUENCY": 1,
        "ProjectCount": 1,
        "LinkedProjectCount": 0,
        "Interactive": false,
        "TopProjectType": "Webmaps, Cartography & Visual Storytelling",
        "ProjectTypes": "Webmaps, Cartography & Visual Storytelling",
        "GeneratedPoint": true
      },
      "geometry": {
        "type": "Point",
        "coordinates": [
          -122.12342593891432,
          50.718982037483165
        ]
      }
    },
    {
      "type": "Feature",
      "properties": {
        "FID": 56,
        "NameKey": "North Vancouver - District",
        "DisplayName": "North Vancouver - District",
        "FREQUENCY": 2,
        "ProjectCount": 2,
        "LinkedProjectCount": 0,
        "Interactive": false,
        "TopProjectType": "Carbon and Energy Modelling",
        "ProjectTypes": "Carbon and Energy Modelling, Additional GIS Support Services",
        "GeneratedPoint": true
      },
      "geometry": {
        "type": "Point",
        "coordinates": [
          -123.00209265893773,
          49.35422904607297
        ]
      }
    },
    {
      "type": "Feature",
      "properties": {
        "FID": 57,
        "NameKey": "Squamish",
        "DisplayName": "Squamish",
        "FREQUENCY": 1,
        "ProjectCount": 1,
        "LinkedProjectCount": 0,
        "Interactive": false,
        "TopProjectType": "Urban Simulation",
        "ProjectTypes": "Urban Simulation",
        "GeneratedPoint": true
      },
      "geometry": {
        "type": "Point",
        "coordinates": [
          -123.13862393474301,
          49.75577651684571
        ]
      }
    },
    {
      "type": "Feature",
      "properties": {
        "FID": 58,
        "NameKey": "Ladysmith",
        "DisplayName": "Ladysmith",
        "FREQUENCY": 2,
        "ProjectCount": 2,
        "LinkedProjectCount": 0,
        "Interactive": false,
        "TopProjectType": "Urban Simulation",
        "ProjectTypes": "Urban Simulation, Webmaps, Cartography & Visual Storytelling",
        "GeneratedPoint": true
      },
      "geometry": {
        "type": "Point",
        "coordinates": [
          -123.80891077596263,
          48.973875578470725
        ]
      }
    },
    {
      "type": "Feature",
      "properties": {
        "FID": 59,
        "NameKey": "North Cowichan",
        "DisplayName": "North Cowichan",
        "FREQUENCY": 2,
        "ProjectCount": 2,
        "LinkedProjectCount": 0,
        "Interactive": false,
        "TopProjectType": "Urban Simulation",
        "ProjectTypes": "Urban Simulation, Additional GIS Support Services",
        "GeneratedPoint": true
      },
      "geometry": {
        "type": "Point",
        "coordinates": [
          -123.66909655035766,
          48.84482237641538
        ]
      }
    }
  ]
}
