{
  "type": "FeatureCollection",
  "features": [
    {
      "type": "Feature",
      "id": 0,
      "geometry": {
        "type": "Point",
        "coordinates": [
          -101.77140045168582,
          54.06637954686525
        ]
      },
      "properties": {
        "FID": 0,
        "Shape_Leng": 373391114.779,
        "NameKey": "Canada",
        "FREQUENCY": 178,
        "DisplayName": "Canada",
        "ProjectCount": 178,
        "LinkedProjectCount": 17,
        "Interactive": false,
        "TopProjectType": "Urban Simulation",
        "ProjectTypes": "Urban Simulation, Webmaps, Cartography & Visual Storytelling, Carbon and Energy Modelling, Additional GIS Support Services"
      }
    },
    {
      "type": "Feature",
      "id": 1,
      "geometry": {
        "type": "Point",
        "coordinates": [
          -102.72656861356161,
          24.19326659184531
        ]
      },
      "properties": {
        "FID": 1,
        "Shape_Leng": 36894624.4075,
        "NameKey": "Mexico",
        "FREQUENCY": 2,
        "DisplayName": "Mexico",
        "ProjectCount": 2,
        "LinkedProjectCount": 0,
        "Interactive": false,
        "TopProjectType": "Urban Simulation",
        "ProjectTypes": "Urban Simulation, Remote Sensing"
      }
    },
    {
      "type": "Feature",
      "id": 2,
      "geometry": {
        "type": "Point",
        "coordinates": [
          -99.12399599999999,
          40.002130000000065
        ]
      },
      "properties": {
        "FID": 2,
        "Shape_Leng": 66506972.0551,
        "NameKey": "United States",
        "FREQUENCY": 5,
        "DisplayName": "United States",
        "ProjectCount": 5,
        "LinkedProjectCount": 1,
        "Interactive": false,
        "TopProjectType": "Urban Simulation",
        "ProjectTypes": "Urban Simulation, Additional GIS Support Services, Site Selection, Logistics & Routing"
      }
    }
  ]
}
