{
  "type": "FeatureCollection",
  "features": [
    {
      "type": "Feature",
      "id": 0,
      "geometry": {
        "type": "Point",
        "coordinates": [
          -99.08794199173241,
          19.238319585788474
        ]
      },
      "properties": {
        "FID": 0,
        "NameKey": "Distrito Federal",
        "FREQUENCY": 1,
        "ProjectCount": 1,
        "LinkedProjectCount": 0,
        "Interactive": false,
        "TopProjectType": "Urban Simulation",
        "ProjectTypes": "Urban Simulation"
      }
    },
    {
      "type": "Feature",
      "id": 1,
      "geometry": {
        "type": "Point",
        "coordinates": [
          -107.49266323316726,
          24.992551510180135
        ]
      },
      "properties": {
        "FID": 1,
        "NameKey": "Sinaloa",
        "FREQUENCY": 1,
        "ProjectCount": 1,
        "LinkedProjectCount": 0,
        "Interactive": false,
        "TopProjectType": "Remote Sensing",
        "ProjectTypes": "Remote Sensing"
      }
    },
    {
      "type": "Feature",
      "id": 2,
      "geometry": {
        "type": "Point",
        "coordinates": [
          -63.32607019214396,
          45.15018730662888
        ]
      },
      "properties": {
        "FID": 2,
        "NameKey": "Nova Scotia",
        "FREQUENCY": 1,
        "ProjectCount": 1,
        "LinkedProjectCount": 0,
        "Interactive": false,
        "TopProjectType": "Webmaps, Cartography & Visual Storytelling",
        "ProjectTypes": "Webmaps, Cartography & Visual Storytelling"
      }
    },
    {
      "type": "Feature",
      "id": 3,
      "geometry": {
        "type": "Point",
        "coordinates": [
          -114.50705457358754,
          55.16361477524208
        ]
      },
      "properties": {
        "FID": 3,
        "NameKey": "Alberta",
        "FREQUENCY": 4,
        "ProjectCount": 4,
        "LinkedProjectCount": 1,
        "Interactive": false,
        "TopProjectType": "Urban Simulation",
        "ProjectTypes": "Urban Simulation, Site Selection, Logistics & Routing, Webmaps, Cartography & Visual Storytelling, Additional GIS Services"
      }
    },
    {
      "type": "Feature",
      "id": 4,
      "geometry": {
        "type": "Point",
        "coordinates": [
          -124.7366298788395,
          54.76791891228447
        ]
      },
      "properties": {
        "FID": 4,
        "NameKey": "British Columbia",
        "FREQUENCY": 159,
        "ProjectCount": 159,
        "LinkedProjectCount": 10,
        "Interactive": false,
        "TopProjectType": "Urban Simulation",
        "ProjectTypes": "Urban Simulation, Webmaps, Cartography & Visual Storytelling, Carbon and Energy Modelling, Additional GIS Support Services"
      }
    },
    {
      "type": "Feature",
      "id": 5,
      "geometry": {
        "type": "Point",
        "coordinates": [
          -66.38040672913417,
          46.627187321651036
        ]
      },
      "properties": {
        "FID": 5,
        "NameKey": "New Brunswick",
        "FREQUENCY": 1,
        "ProjectCount": 1,
        "LinkedProjectCount": 0,
        "Interactive": false,
        "TopProjectType": "Webmaps, Cartography & Visual Storytelling",
        "ProjectTypes": "Webmaps, Cartography & Visual Storytelling"
      }
    },
    {
      "type": "Feature",
      "id": 6,
      "geometry": {
        "type": "Point",
        "coordinates": [
          -86.07296056418261,
          50.45101643657267
        ]
      },
      "properties": {
        "FID": 6,
        "NameKey": "Ontario",
        "FREQUENCY": 6,
        "ProjectCount": 6,
        "LinkedProjectCount": 1,
        "Interactive": false,
        "TopProjectType": "Webmaps, Cartography & Visual Storytelling",
        "ProjectTypes": "Webmaps, Cartography & Visual Storytelling, Site Selection, Logistics & Routing, Urban Simulation"
      }
    },
    {
      "type": "Feature",
      "id": 7,
      "geometry": {
        "type": "Point",
        "coordinates": [
          -119.00123388970758,
          66.34936241184937
        ]
      },
      "properties": {
        "FID": 7,
        "NameKey": "Northwest Territories",
        "FREQUENCY": 1,
        "ProjectCount": 1,
        "LinkedProjectCount": 0,
        "Interactive": false,
        "TopProjectType": "Urban Simulation",
        "ProjectTypes": "Urban Simulation"
      }
    },
    {
      "type": "Feature",
      "id": 8,
      "geometry": {
        "type": "Point",
        "coordinates": [
          -94.1983384773963,
          46.349268631306245
        ]
      },
      "properties": {
        "FID": 8,
        "NameKey": "Minnesota",
        "FREQUENCY": 2,
        "ProjectCount": 2,
        "LinkedProjectCount": 1,
        "Interactive": false,
        "TopProjectType": "Additional GIS Support Services",
        "ProjectTypes": "Additional GIS Support Services"
      }
    },
    {
      "type": "Feature",
      "id": 9,
      "geometry": {
        "type": "Point",
        "coordinates": [
          -105.54782110178303,
          38.99853162493093
        ]
      },
      "properties": {
        "FID": 9,
        "NameKey": "Colorado",
        "FREQUENCY": 2,
        "ProjectCount": 2,
        "LinkedProjectCount": 0,
        "Interactive": false,
        "TopProjectType": "Urban Simulation",
        "ProjectTypes": "Urban Simulation"
      }
    }
  ]
}
