{
  "type": "FeatureCollection",
  "features": [
    {
      "type": "Feature",
      "id": 0,
      "geometry": {
        "type": "Point",
        "coordinates": [
          -79.39043460389739,
          43.727085542343445
        ]
      },
      "properties": {
        "FID": 0,
        "NameKey": "City Of Toronto - Ontario",
        "FREQUENCY": 5,
        "ProjectCount": 5,
        "LinkedProjectCount": 1,
        "Interactive": false,
        "TopProjectType": "Webmaps, Cartography & Visual Storytelling",
        "ProjectTypes": "Webmaps, Cartography & Visual Storytelling, Urban Simulation, Site Selection, Logistics & Routing"
      }
    },
    {
      "type": "Feature",
      "id": 1,
      "geometry": {
        "type": "Point",
        "coordinates": [
          -79.43866698624863,
          44.017353451616934
        ]
      },
      "properties": {
        "FID": 1,
        "NameKey": "Regional Municipality Of York - Ontario",
        "FREQUENCY": 1,
        "ProjectCount": 1,
        "LinkedProjectCount": 0,
        "Interactive": false,
        "TopProjectType": "Site Selection, Logistics & Routing",
        "ProjectTypes": "Site Selection, Logistics & Routing"
      }
    },
    {
      "type": "Feature",
      "id": 2,
      "geometry": {
        "type": "Point",
        "coordinates": [
          -114.06867409761759,
          50.62994037467114
        ]
      },
      "properties": {
        "FID": 2,
        "NameKey": "Foothills County - Alberta",
        "FREQUENCY": 1,
        "ProjectCount": 1,
        "LinkedProjectCount": 0,
        "Interactive": false,
        "TopProjectType": "Urban Simulation",
        "ProjectTypes": "Urban Simulation"
      }
    },
    {
      "type": "Feature",
      "id": 3,
      "geometry": {
        "type": "Point",
        "coordinates": [
          -114.0522283832834,
          51.03502887332971
        ]
      },
      "properties": {
        "FID": 3,
        "NameKey": "City Of Calgary - Alberta",
        "FREQUENCY": 1,
        "ProjectCount": 1,
        "LinkedProjectCount": 1,
        "Interactive": false,
        "TopProjectType": "Site Selection, Logistics & Routing",
        "ProjectTypes": "Site Selection, Logistics & Routing"
      }
    },
    {
      "type": "Feature",
      "id": 4,
      "geometry": {
        "type": "Point",
        "coordinates": [
          -119.45822865965738,
          49.94855370677953
        ]
      },
      "properties": {
        "FID": 4,
        "NameKey": "Regional District of Central Okanagan - British Columbia",
        "FREQUENCY": 3,
        "ProjectCount": 3,
        "LinkedProjectCount": 0,
        "Interactive": false,
        "TopProjectType": "Webmaps, Cartography & Visual Storytelling",
        "ProjectTypes": "Webmaps, Cartography & Visual Storytelling, Urban Simulation"
      }
    },
    {
      "type": "Feature",
      "id": 5,
      "geometry": {
        "type": "Point",
        "coordinates": [
          -121.8799371280361,
          49.551105775449685
        ]
      },
      "properties": {
        "FID": 5,
        "NameKey": "Fraser Valley Regional District - British Columbia",
        "FREQUENCY": 9,
        "ProjectCount": 9,
        "LinkedProjectCount": 0,
        "Interactive": false,
        "TopProjectType": "Remote Sensing",
        "ProjectTypes": "Remote Sensing, Webmaps, Cartography & Visual Storytelling, Carbon and Energy Modelling, Site Selection, Logistics & Routing"
      }
    },
    {
      "type": "Feature",
      "id": 6,
      "geometry": {
        "type": "Point",
        "coordinates": [
          -122.94740355820274,
          49.25815509069865
        ]
      },
      "properties": {
        "FID": 6,
        "NameKey": "Metro Vancouver Regional District - British Columbia",
        "FREQUENCY": 82,
        "ProjectCount": 82,
        "LinkedProjectCount": 8,
        "Interactive": false,
        "TopProjectType": "Urban Simulation",
        "ProjectTypes": "Urban Simulation, Carbon and Energy Modelling, Additional GIS Support Services, Webmaps, Cartography & Visual Storytelling"
      }
    },
    {
      "type": "Feature",
      "id": 7,
      "geometry": {
        "type": "Point",
        "coordinates": [
          -120.38615691566042,
          50.81880325244046
        ]
      },
      "properties": {
        "FID": 7,
        "NameKey": "Thompson Nicola Regional District - British Columbia",
        "FREQUENCY": 6,
        "ProjectCount": 6,
        "LinkedProjectCount": 0,
        "Interactive": false,
        "TopProjectType": "Carbon and Energy Modelling",
        "ProjectTypes": "Carbon and Energy Modelling, Webmaps, Cartography & Visual Storytelling, Urban Simulation, Additional GIS Support Services"
      }
    },
    {
      "type": "Feature",
      "id": 8,
      "geometry": {
        "type": "Point",
        "coordinates": [
          -117.2981844755006,
          49.852178586462095
        ]
      },
      "properties": {
        "FID": 8,
        "NameKey": "Regional District of Central Kootenay - British Columbia",
        "FREQUENCY": 1,
        "ProjectCount": 1,
        "LinkedProjectCount": 0,
        "Interactive": false,
        "TopProjectType": "Urban Simulation",
        "ProjectTypes": "Urban Simulation"
      }
    },
    {
      "type": "Feature",
      "id": 9,
      "geometry": {
        "type": "Point",
        "coordinates": [
          -123.15959395150902,
          50.019689335040546
        ]
      },
      "properties": {
        "FID": 9,
        "NameKey": "Squamish-Lillooet Regional District - British Columbia",
        "FREQUENCY": 4,
        "ProjectCount": 4,
        "LinkedProjectCount": 0,
        "Interactive": false,
        "TopProjectType": "Remote Sensing",
        "ProjectTypes": "Remote Sensing, Webmaps, Cartography & Visual Storytelling, Urban Simulation"
      }
    },
    {
      "type": "Feature",
      "id": 10,
      "geometry": {
        "type": "Point",
        "coordinates": [
          -118.78454741219711,
          50.366678564073695
        ]
      },
      "properties": {
        "FID": 10,
        "NameKey": "Regional District of North Okanagan - British Columbia",
        "FREQUENCY": 1,
        "ProjectCount": 1,
        "LinkedProjectCount": 0,
        "Interactive": false,
        "TopProjectType": "Carbon and Energy Modelling",
        "ProjectTypes": "Carbon and Energy Modelling"
      }
    },
    {
      "type": "Feature",
      "id": 11,
      "geometry": {
        "type": "Point",
        "coordinates": [
          -123.40979867477775,
          48.49164294438992
        ]
      },
      "properties": {
        "FID": 11,
        "NameKey": "Capital Regional District - British Columbia",
        "FREQUENCY": 21,
        "ProjectCount": 21,
        "LinkedProjectCount": 3,
        "Interactive": false,
        "TopProjectType": "Urban Simulation",
        "ProjectTypes": "Urban Simulation, Uncategorized, Additional GIS Support Services, Webmaps, Cartography & Visual Storytelling"
      }
    },
    {
      "type": "Feature",
      "id": 12,
      "geometry": {
        "type": "Point",
        "coordinates": [
          -125.02780823904524,
          49.661877334737
        ]
      },
      "properties": {
        "FID": 12,
        "NameKey": "Comox Valley Regional District - British Columbia",
        "FREQUENCY": 5,
        "ProjectCount": 5,
        "LinkedProjectCount": 0,
        "Interactive": false,
        "TopProjectType": "Urban Simulation",
        "ProjectTypes": "Urban Simulation, Webmaps, Cartography & Visual Storytelling"
      }
    },
    {
      "type": "Feature",
      "id": 13,
      "geometry": {
        "type": "Point",
        "coordinates": [
          -123.73980137797558,
          48.80885150015854
        ]
      },
      "properties": {
        "FID": 13,
        "NameKey": "Cowichan Valley Regional District - British Columbia",
        "FREQUENCY": 7,
        "ProjectCount": 7,
        "LinkedProjectCount": 1,
        "Interactive": false,
        "TopProjectType": "Urban Simulation",
        "ProjectTypes": "Urban Simulation, Additional GIS Support Services, Webmaps, Cartography & Visual Storytelling"
      }
    },
    {
      "type": "Feature",
      "id": 14,
      "geometry": {
        "type": "Point",
        "coordinates": [
          -117.95710207602318,
          51.38564592075268
        ]
      },
      "properties": {
        "FID": 14,
        "NameKey": "Regional District of Columbia-Shuswap - British Columbia",
        "FREQUENCY": 1,
        "ProjectCount": 1,
        "LinkedProjectCount": 0,
        "Interactive": false,
        "TopProjectType": "Urban Simulation",
        "ProjectTypes": "Urban Simulation"
      }
    },
    {
      "type": "Feature",
      "id": 15,
      "geometry": {
        "type": "Point",
        "coordinates": [
          -115.62923405603547,
          49.967301615327806
        ]
      },
      "properties": {
        "FID": 15,
        "NameKey": "Regional District of East Kootenay - British Columbia",
        "FREQUENCY": 3,
        "ProjectCount": 3,
        "LinkedProjectCount": 0,
        "Interactive": false,
        "TopProjectType": "Site Selection, Logistics & Routing",
        "ProjectTypes": "Site Selection, Logistics & Routing, Urban Simulation"
      }
    },
    {
      "type": "Feature",
      "id": 16,
      "geometry": {
        "type": "Point",
        "coordinates": [
          -124.20514675482694,
          49.224712272434466
        ]
      },
      "properties": {
        "FID": 16,
        "NameKey": "Regional District of Nanaimo - British Columbia",
        "FREQUENCY": 5,
        "ProjectCount": 5,
        "LinkedProjectCount": 1,
        "Interactive": false,
        "TopProjectType": "Urban Simulation",
        "ProjectTypes": "Urban Simulation, Additional GIS Support Services"
      }
    },
    {
      "type": "Feature",
      "id": 17,
      "geometry": {
        "type": "Point",
        "coordinates": [
          -124.43288248853571,
          49.81285065146124
        ]
      },
      "properties": {
        "FID": 17,
        "NameKey": "Powell River Regional District - British Columbia",
        "FREQUENCY": 1,
        "ProjectCount": 1,
        "LinkedProjectCount": 0,
        "Interactive": false,
        "TopProjectType": "Remote Sensing",
        "ProjectTypes": "Remote Sensing"
      }
    },
    {
      "type": "Feature",
      "id": 18,
      "geometry": {
        "type": "Point",
        "coordinates": [
          -123.76984655207139,
          49.76927041304411
        ]
      },
      "properties": {
        "FID": 18,
        "NameKey": "Sunshine Coast Regional District - British Columbia",
        "FREQUENCY": 2,
        "ProjectCount": 2,
        "LinkedProjectCount": 0,
        "Interactive": false,
        "TopProjectType": "Additional GIS Support Services",
        "ProjectTypes": "Additional GIS Support Services, Urban Simulation"
      }
    },
    {
      "type": "Feature",
      "id": 19,
      "geometry": {
        "type": "Point",
        "coordinates": [
          -125.64559205654362,
          50.320106336312705
        ]
      },
      "properties": {
        "FID": 19,
        "NameKey": "Strathcona Regional District - British Columbia",
        "FREQUENCY": 1,
        "ProjectCount": 1,
        "LinkedProjectCount": 0,
        "Interactive": false,
        "TopProjectType": "Urban Simulation",
        "ProjectTypes": "Urban Simulation"
      }
    },
    {
      "type": "Feature",
      "id": 20,
      "geometry": {
        "type": "Point",
        "coordinates": [
          -105.64436925821963,
          39.68910876488882
        ]
      },
      "properties": {
        "FID": 20,
        "NameKey": "Clear Creek - Colorado",
        "FREQUENCY": 1,
        "ProjectCount": 1,
        "LinkedProjectCount": 0,
        "Interactive": false,
        "TopProjectType": "Urban Simulation",
        "ProjectTypes": "Urban Simulation"
      }
    },
    {
      "type": "Feature",
      "id": 21,
      "geometry": {
        "type": "Point",
        "coordinates": [
          -105.35771591200077,
          40.09246621490718
        ]
      },
      "properties": {
        "FID": 21,
        "NameKey": "Boulder - Colorado",
        "FREQUENCY": 1,
        "ProjectCount": 1,
        "LinkedProjectCount": 0,
        "Interactive": false,
        "TopProjectType": "Urban Simulation",
        "ProjectTypes": "Urban Simulation"
      }
    },
    {
      "type": "Feature",
      "id": 22,
      "geometry": {
        "type": "Point",
        "coordinates": [
          -92.46147344118488,
          47.58987058212849
        ]
      },
      "properties": {
        "FID": 22,
        "NameKey": "St. Louis - Minnesota",
        "FREQUENCY": 2,
        "ProjectCount": 2,
        "LinkedProjectCount": 1,
        "Interactive": false,
        "TopProjectType": "Additional GIS Support Services",
        "ProjectTypes": "Additional GIS Support Services"
      }
    },
    {
      "type": "Feature",
      "id": 23,
      "geometry": {
        "type": "Point",
        "coordinates": [
          -99.10371891336797,
          19.451089278590302
        ]
      },
      "properties": {
        "FID": 23,
        "NameKey": "Ciudad de Mexico",
        "FREQUENCY": 1,
        "ProjectCount": 1,
        "LinkedProjectCount": 0,
        "Interactive": false,
        "TopProjectType": "Urban Simulation",
        "ProjectTypes": "Urban Simulation"
      }
    },
    {
      "type": "Feature",
      "id": 24,
      "geometry": {
        "type": "Point",
        "coordinates": [
          -114.36912996819315,
          62.453592080486786
        ]
      },
      "properties": {
        "FID": 24,
        "NameKey": "North Slave Region - Northwest Territories",
        "FREQUENCY": 1,
        "ProjectCount": 1,
        "LinkedProjectCount": 0,
        "Interactive": false,
        "TopProjectType": "Urban Simulation",
        "ProjectTypes": "Urban Simulation"
      }
    },
    {
      "type": "Feature",
      "id": 25,
      "geometry": {
        "type": "Point",
        "coordinates": [
          -66.98252961161997,
          46.088775988518584
        ]
      },
      "properties": {
        "FID": 25,
        "NameKey": "York - New Brunswick",
        "FREQUENCY": 1,
        "ProjectCount": 0,
        "LinkedProjectCount": 0,
        "Interactive": false,
        "TopProjectType": "",
        "ProjectTypes": ""
      }
    },
    {
      "type": "Feature",
      "id": 26,
      "geometry": {
        "type": "Point",
        "coordinates": [
          -63.14801554067126,
          44.86741812639343
        ]
      },
      "properties": {
        "FID": 26,
        "NameKey": "Halifax - Nova Scotia",
        "FREQUENCY": 1,
        "ProjectCount": 1,
        "LinkedProjectCount": 0,
        "Interactive": false,
        "TopProjectType": "Webmaps, Cartography & Visual Storytelling",
        "ProjectTypes": "Webmaps, Cartography & Visual Storytelling"
      }
    },
    {
      "type": "Feature",
      "id": 27,
      "geometry": {
        "type": "Point",
        "coordinates": [
          -106.41318581117979,
          23.258369763785172
        ]
      },
      "properties": {
        "FID": 27,
        "NameKey": "Mazatlan",
        "FREQUENCY": 1,
        "ProjectCount": 1,
        "LinkedProjectCount": 0,
        "Interactive": false,
        "TopProjectType": "Remote Sensing",
        "ProjectTypes": "Remote Sensing"
      }
    },
    {
      "type": "Feature",
      "properties": {
        "FID": 28,
        "NameKey": "RDCO",
        "FREQUENCY": 3,
        "ProjectCount": 3,
        "LinkedProjectCount": 0,
        "Interactive": false,
        "TopProjectType": "Webmaps, Cartography & Visual Storytelling",
        "ProjectTypes": "Webmaps, Cartography & Visual Storytelling, Urban Simulation",
        "GeneratedPoint": true
      },
      "geometry": {
        "type": "Point",
        "coordinates": [
          -119.42862567202229,
          49.95292836294242
        ]
      }
    },
    {
      "type": "Feature",
      "properties": {
        "FID": 29,
        "NameKey": "FVRD",
        "FREQUENCY": 9,
        "ProjectCount": 9,
        "LinkedProjectCount": 0,
        "Interactive": false,
        "TopProjectType": "Remote Sensing",
        "ProjectTypes": "Remote Sensing, Webmaps, Cartography & Visual Storytelling, Carbon and Energy Modelling, Site Selection, Logistics & Routing",
        "GeneratedPoint": true
      },
      "geometry": {
        "type": "Point",
        "coordinates": [
          -121.90772242258589,
          49.57390766818862
        ]
      }
    },
    {
      "type": "Feature",
      "properties": {
        "FID": 30,
        "NameKey": "MVRD",
        "FREQUENCY": 82,
        "ProjectCount": 82,
        "LinkedProjectCount": 8,
        "Interactive": false,
        "TopProjectType": "Urban Simulation",
        "ProjectTypes": "Urban Simulation, Carbon and Energy Modelling, Additional GIS Support Services, Webmaps, Cartography & Visual Storytelling",
        "GeneratedPoint": true
      },
      "geometry": {
        "type": "Point",
        "coordinates": [
          -123.06143133092522,
          49.28601329104162
        ]
      }
    },
    {
      "type": "Feature",
      "properties": {
        "FID": 31,
        "NameKey": "TNRD",
        "FREQUENCY": 6,
        "ProjectCount": 6,
        "LinkedProjectCount": 0,
        "Interactive": false,
        "TopProjectType": "Carbon and Energy Modelling",
        "ProjectTypes": "Carbon and Energy Modelling, Webmaps, Cartography & Visual Storytelling, Urban Simulation, Additional GIS Support Services",
        "GeneratedPoint": true
      },
      "geometry": {
        "type": "Point",
        "coordinates": [
          -120.73256576252771,
          51.24341046562145
        ]
      }
    },
    {
      "type": "Feature",
      "properties": {
        "FID": 32,
        "NameKey": "SLRD",
        "FREQUENCY": 4,
        "ProjectCount": 4,
        "LinkedProjectCount": 0,
        "Interactive": false,
        "TopProjectType": "Remote Sensing",
        "ProjectTypes": "Remote Sensing, Webmaps, Cartography & Visual Storytelling, Urban Simulation",
        "GeneratedPoint": true
      },
      "geometry": {
        "type": "Point",
        "coordinates": [
          -122.818677333333,
          50.346608107692994
        ]
      }
    },
    {
      "type": "Feature",
      "properties": {
        "FID": 33,
        "NameKey": "RDNO",
        "FREQUENCY": 1,
        "ProjectCount": 1,
        "LinkedProjectCount": 0,
        "Interactive": false,
        "TopProjectType": "Carbon and Energy Modelling",
        "ProjectTypes": "Carbon and Energy Modelling",
        "GeneratedPoint": true
      },
      "geometry": {
        "type": "Point",
        "coordinates": [
          -118.96327671937391,
          50.374626662626554
        ]
      }
    },
    {
      "type": "Feature",
      "properties": {
        "FID": 34,
        "NameKey": "CAPRD",
        "FREQUENCY": 21,
        "ProjectCount": 21,
        "LinkedProjectCount": 3,
        "Interactive": false,
        "TopProjectType": "Urban Simulation",
        "ProjectTypes": "Urban Simulation, Uncategorized, Additional GIS Support Services, Webmaps, Cartography & Visual Storytelling",
        "GeneratedPoint": true
      },
      "geometry": {
        "type": "Point",
        "coordinates": [
          -123.75592094005908,
          48.62093071666462
        ]
      }
    },
    {
      "type": "Feature",
      "properties": {
        "FID": 35,
        "NameKey": "CMXRD",
        "FREQUENCY": 5,
        "ProjectCount": 5,
        "LinkedProjectCount": 0,
        "Interactive": false,
        "TopProjectType": "Urban Simulation",
        "ProjectTypes": "Urban Simulation, Webmaps, Cartography & Visual Storytelling",
        "GeneratedPoint": true
      },
      "geometry": {
        "type": "Point",
        "coordinates": [
          -125.0161927716158,
          49.6632732392951
        ]
      }
    },
    {
      "type": "Feature",
      "properties": {
        "FID": 36,
        "NameKey": "CVRD",
        "FREQUENCY": 7,
        "ProjectCount": 7,
        "LinkedProjectCount": 1,
        "Interactive": false,
        "TopProjectType": "Urban Simulation",
        "ProjectTypes": "Urban Simulation, Additional GIS Support Services, Webmaps, Cartography & Visual Storytelling",
        "GeneratedPoint": true
      },
      "geometry": {
        "type": "Point",
        "coordinates": [
          -124.0961949732052,
          48.79322288744662
        ]
      }
    },
    {
      "type": "Feature",
      "properties": {
        "FID": 37,
        "NameKey": "RDCSH",
        "FREQUENCY": 1,
        "ProjectCount": 1,
        "LinkedProjectCount": 0,
        "Interactive": false,
        "TopProjectType": "Urban Simulation",
        "ProjectTypes": "Urban Simulation",
        "GeneratedPoint": true
      },
      "geometry": {
        "type": "Point",
        "coordinates": [
          -117.98267517940894,
          51.44935533736209
        ]
      }
    },
    {
      "type": "Feature",
      "properties": {
        "FID": 38,
        "NameKey": "RDEK",
        "FREQUENCY": 3,
        "ProjectCount": 3,
        "LinkedProjectCount": 0,
        "Interactive": false,
        "TopProjectType": "Site Selection, Logistics & Routing",
        "ProjectTypes": "Site Selection, Logistics & Routing, Urban Simulation",
        "GeneratedPoint": true
      },
      "geometry": {
        "type": "Point",
        "coordinates": [
          -115.42556864019002,
          50.1665576534442
        ]
      }
    },
    {
      "type": "Feature",
      "properties": {
        "FID": 39,
        "NameKey": "RDN",
        "FREQUENCY": 5,
        "ProjectCount": 5,
        "LinkedProjectCount": 1,
        "Interactive": false,
        "TopProjectType": "Urban Simulation",
        "ProjectTypes": "Urban Simulation, Additional GIS Support Services",
        "GeneratedPoint": true
      },
      "geometry": {
        "type": "Point",
        "coordinates": [
          -124.19876985581229,
          49.22799894755026
        ]
      }
    },
    {
      "type": "Feature",
      "properties": {
        "FID": 40,
        "NameKey": "PORRD",
        "FREQUENCY": 1,
        "ProjectCount": 1,
        "LinkedProjectCount": 0,
        "Interactive": false,
        "TopProjectType": "Remote Sensing",
        "ProjectTypes": "Remote Sensing",
        "GeneratedPoint": true
      },
      "geometry": {
        "type": "Point",
        "coordinates": [
          -124.36071220904745,
          50.113359973068626
        ]
      }
    },
    {
      "type": "Feature",
      "properties": {
        "FID": 41,
        "NameKey": "SCRD",
        "FREQUENCY": 2,
        "ProjectCount": 2,
        "LinkedProjectCount": 0,
        "Interactive": false,
        "TopProjectType": "Additional GIS Support Services",
        "ProjectTypes": "Additional GIS Support Services, Urban Simulation",
        "GeneratedPoint": true
      },
      "geometry": {
        "type": "Point",
        "coordinates": [
          -123.76550649504497,
          49.83207496789551
        ]
      }
    },
    {
      "type": "Feature",
      "properties": {
        "FID": 42,
        "NameKey": "STRD",
        "FREQUENCY": 1,
        "ProjectCount": 1,
        "LinkedProjectCount": 0,
        "Interactive": false,
        "TopProjectType": "Urban Simulation",
        "ProjectTypes": "Urban Simulation",
        "GeneratedPoint": true
      },
      "geometry": {
        "type": "Point",
        "coordinates": [
          -125.83748608510916,
          50.40259638689831
        ]
      }
    },
    {
      "type": "Feature",
      "properties": {
        "FID": 43,
        "NameKey": "RDCK",
        "FREQUENCY": 1,
        "ProjectCount": 1,
        "LinkedProjectCount": 0,
        "Interactive": false,
        "TopProjectType": "Urban Simulation",
        "ProjectTypes": "Urban Simulation",
        "GeneratedPoint": true
      },
      "geometry": {
        "type": "Point",
        "coordinates": [
          -117.26199557354383,
          50.03263905728241
        ]
      }
    }
  ]
}
