{"type":"FeatureCollection","features":[{"type":"Feature","id":0,"geometry":{"type":"Point","coordinates":[-92.106578700146827,46.783273099232133]},"properties":{"FID":0,"NameKey":"Duluth - Saint Louis - MN","FREQUENCY":1}},{"type":"Feature","id":1,"geometry":{"type":"Point","coordinates":[-105.51360819985842,39.74248809941804]},"properties":{"FID":1,"NameKey":"Idaho Springs - Clear Creek - CO","FREQUENCY":1}},{"type":"Feature","id":2,"geometry":{"type":"Point","coordinates":[-105.16859770042345,39.952763399282048]},"properties":{"FID":2,"NameKey":"Superior - Boulder - CO","FREQUENCY":1}},{"type":"Feature","id":3,"geometry":{"type":"Point","coordinates":[-79.38321696907235,43.654857142571984]},"properties":{"FID":3,"NameKey":"Toronto - Ontario","FREQUENCY":5}},{"type":"Feature","id":4,"geometry":{"type":"Point","coordinates":[-63.601876067387252,44.648756160285473]},"properties":{"FID":4,"NameKey":"Halifax - Nova Scotia","FREQUENCY":1}},{"type":"Feature","id":5,"geometry":{"type":"Point","coordinates":[-66.645585595755847,45.955390955809833]},"properties":{"FID":5,"NameKey":"Fredericton - New Brunswick","FREQUENCY":1}},{"type":"Feature","id":6,"geometry":{"type":"Point","coordinates":[-115.75889647576497,49.515485795171344]},"properties":{"FID":6,"NameKey":"Cranbrook - British Columbia","FREQUENCY":3}},{"type":"Feature","id":7,"geometry":{"type":"Point","coordinates":[-117.27678507437429,49.191615001586683]},"properties":{"FID":7,"NameKey":"Salmo - British Columbia","FREQUENCY":1}},{"type":"Feature","id":8,"geometry":{"type":"Point","coordinates":[-113.97749989991792,50.726111100355695]},"properties":{"FID":8,"NameKey":"Okotoks - Alberta","FREQUENCY":1}},{"type":"Feature","id":9,"geometry":{"type":"Point","coordinates":[-123.36170690412484,48.433438430623426]},"properties":{"FID":9,"NameKey":"Victoria - British Columbia","FREQUENCY":7}},{"type":"Feature","id":10,"geometry":{"type":"Point","coordinates":[-123.49651928544279,48.432077548351288]},"properties":{"FID":10,"NameKey":"Colwood - British Columbia","FREQUENCY":1}},{"type":"Feature","id":11,"geometry":{"type":"Point","coordinates":[-123.38796882548525,48.487848622388867]},"properties":{"FID":11,"NameKey":"Saanich - British Columbia","FREQUENCY":1}},{"type":"Feature","id":12,"geometry":{"type":"Point","coordinates":[-123.72791585605137,48.382279613378728]},"properties":{"FID":12,"NameKey":"Sooke - British Columbia","FREQUENCY":1}},{"type":"Feature","id":13,"geometry":{"type":"Point","coordinates":[-123.49741875208974,48.456602013450208]},"properties":{"FID":13,"NameKey":"Langford - British Columbia","FREQUENCY":1}},{"type":"Feature","id":14,"geometry":{"type":"Point","coordinates":[-123.39705385795577,48.566903524425925]},"properties":{"FID":14,"NameKey":"Central Saanich - British Columbia","FREQUENCY":1}},{"type":"Feature","id":15,"geometry":{"type":"Point","coordinates":[-123.41669990007557,48.599999999921465]},"properties":{"FID":15,"NameKey":"Saanichton - British Columbia","FREQUENCY":1}},{"type":"Feature","id":16,"geometry":{"type":"Point","coordinates":[-123.42146294565583,48.621723427270467]},"properties":{"FID":16,"NameKey":"North Saanich - British Columbia","FREQUENCY":1}},{"type":"Feature","id":17,"geometry":{"type":"Point","coordinates":[-123.39999989923956,48.649999999982981]},"properties":{"FID":17,"NameKey":"Sidney - British Columbia","FREQUENCY":1}},{"type":"Feature","id":18,"geometry":{"type":"Point","coordinates":[-114.05749989962692,51.045833299990704]},"properties":{"FID":18,"NameKey":"Calgary - Alberta","FREQUENCY":1}},{"type":"Feature","id":19,"geometry":{"type":"Point","coordinates":[-122.32131459357959,49.056399362778336]},"properties":{"FID":19,"NameKey":"Abbotsford - British Columbia","FREQUENCY":3}},{"type":"Feature","id":20,"geometry":{"type":"Point","coordinates":[-121.94162731154495,49.174998461349219]},"properties":{"FID":20,"NameKey":"Chilliwack - British Columbia","FREQUENCY":5}},{"type":"Feature","id":21,"geometry":{"type":"Point","coordinates":[-119.63138167921295,49.828564160527208]},"properties":{"FID":21,"NameKey":"Westbank - British Columbia","FREQUENCY":2}},{"type":"Feature","id":22,"geometry":{"type":"Point","coordinates":[-122.30369532633341,49.137610796656702]},"properties":{"FID":22,"NameKey":"Mission - British Columbia","FREQUENCY":1}},{"type":"Feature","id":23,"geometry":{"type":"Point","coordinates":[-122.79616310769012,49.025168300930716]},"properties":{"FID":23,"NameKey":"White Rock - British Columbia","FREQUENCY":1}},{"type":"Feature","id":24,"geometry":{"type":"Point","coordinates":[-122.65883665274742,49.103780074525048]},"properties":{"FID":24,"NameKey":"Langley - City - British Columbia","FREQUENCY":2}},{"type":"Feature","id":25,"geometry":{"type":"Point","coordinates":[-123.09365831440266,49.035714186206519]},"properties":{"FID":25,"NameKey":"Tsawwassen - British Columbia","FREQUENCY":1}},{"type":"Feature","id":26,"geometry":{"type":"Point","coordinates":[-123.70178259782841,48.851062673646936]},"properties":{"FID":26,"NameKey":"Westholme - British Columbia","FREQUENCY":1}},{"type":"Feature","id":27,"geometry":{"type":"Point","coordinates":[-122.59794609192335,49.217407479176302]},"properties":{"FID":27,"NameKey":"Maple Ridge - British Columbia","FREQUENCY":2}},{"type":"Feature","id":28,"geometry":{"type":"Point","coordinates":[-123.07777770050507,49.091666600018243]},"properties":{"FID":28,"NameKey":"Ladner - British Columbia","FREQUENCY":2}},{"type":"Feature","id":29,"geometry":{"type":"Point","coordinates":[-122.68629553605138,49.217152272288502]},"properties":{"FID":29,"NameKey":"Pitt Meadows - British Columbia","FREQUENCY":1}},{"type":"Feature","id":30,"geometry":{"type":"Point","coordinates":[-122.82777119635642,49.174479157283713]},"properties":{"FID":30,"NameKey":"Surrey - British Columbia","FREQUENCY":10}},{"type":"Feature","id":31,"geometry":{"type":"Point","coordinates":[-122.91669999941479,49.216699900170795]},"properties":{"FID":31,"NameKey":"New Westminster - British Columbia","FREQUENCY":2}},{"type":"Feature","id":32,"geometry":{"type":"Point","coordinates":[-123.15820457067832,49.153856885485368]},"properties":{"FID":32,"NameKey":"Richmond - British Columbia","FREQUENCY":3}},{"type":"Feature","id":33,"geometry":{"type":"Point","coordinates":[-119.26888710140867,50.264224171985518]},"properties":{"FID":33,"NameKey":"Vernon - British Columbia","FREQUENCY":1}},{"type":"Feature","id":34,"geometry":{"type":"Point","coordinates":[-122.86762527294326,49.278646552671887]},"properties":{"FID":34,"NameKey":"Port Moody - British Columbia","FREQUENCY":1}},{"type":"Feature","id":35,"geometry":{"type":"Point","coordinates":[-122.96170710959518,49.252087044813607]},"properties":{"FID":35,"NameKey":"Burnaby - British Columbia","FREQUENCY":5}},{"type":"Feature","id":36,"geometry":{"type":"Point","coordinates":[-123.11538738462491,49.244798659559194]},"properties":{"FID":36,"NameKey":"Vancouver - British Columbia","FREQUENCY":27}},{"type":"Feature","id":37,"geometry":{"type":"Point","coordinates":[-123.93914729916094,49.165923637389767]},"properties":{"FID":37,"NameKey":"Nanaimo - British Columbia","FREQUENCY":4}},{"type":"Feature","id":38,"geometry":{"type":"Point","coordinates":[-123.76223497742961,49.479394551215591]},"properties":{"FID":38,"NameKey":"Sechelt - British Columbia","FREQUENCY":1}},{"type":"Feature","id":39,"geometry":{"type":"Point","coordinates":[-118.98023112708785,50.835017567422085]},"properties":{"FID":39,"NameKey":"Sicamous - British Columbia","FREQUENCY":1}},{"type":"Feature","id":40,"geometry":{"type":"Point","coordinates":[-120.34772932663827,50.6782505411947]},"properties":{"FID":40,"NameKey":"Kamloops - British Columbia","FREQUENCY":6}},{"type":"Feature","id":41,"geometry":{"type":"Point","coordinates":[-122.95544037450105,50.117473723805517]},"properties":{"FID":41,"NameKey":"Whistler - British Columbia","FREQUENCY":2}},{"type":"Feature","id":42,"geometry":{"type":"Point","coordinates":[-124.92779453920161,49.673857627335224]},"properties":{"FID":42,"NameKey":"Comox - British Columbia","FREQUENCY":2}},{"type":"Feature","id":43,"geometry":{"type":"Point","coordinates":[-124.99897439668553,49.68891553218765]},"properties":{"FID":43,"NameKey":"Courtenay - British Columbia","FREQUENCY":1}},{"type":"Feature","id":44,"geometry":{"type":"Point","coordinates":[-124.54649650107467,49.871999555655464]},"properties":{"FID":44,"NameKey":"Powell River - British Columbia","FREQUENCY":1}},{"type":"Feature","id":45,"geometry":{"type":"Point","coordinates":[-121.94406886423877,50.680259166173755]},"properties":{"FID":45,"NameKey":"Lillooet 1 - British Columbia","FREQUENCY":1}},{"type":"Feature","id":46,"geometry":{"type":"Point","coordinates":[-125.24166660033308,50.016666600351641]},"properties":{"FID":46,"NameKey":"Campbell River - British Columbia","FREQUENCY":1}},{"type":"Feature","id":47,"geometry":{"type":"Point","coordinates":[-114.36911062062023,62.453584863408253]},"properties":{"FID":47,"NameKey":"Yellowknife - Northwest Territories","FREQUENCY":1}},{"type":"Feature","id":48,"geometry":{"type":"Point","coordinates":[-123.00466137665194,49.363806209015138]},"properties":{"FID":48,"NameKey":"North Vancouver - British Columbia","FREQUENCY":2}},{"type":"Feature","id":49,"geometry":{"type":"Point","coordinates":[-122.54816180780625,49.084472619010853]},"properties":{"FID":49,"NameKey":"Langley - District - British Columbia","FREQUENCY":1}},{"type":"Feature","id":50,"geometry":{"type":"Point","coordinates":[-123.24976859575617,49.266734750489775]},"properties":{"FID":50,"NameKey":"UBC - British Columbia","FREQUENCY":5}},{"type":"Feature","id":51,"geometry":{"type":"Point","coordinates":[-123.07011884899697,49.317397537083082]},"properties":{"FID":51,"NameKey":"North Vancouver - City - British Columbia","FREQUENCY":1}},{"type":"Feature","id":52,"geometry":{"type":"Point","coordinates":[-124.08429824673493,49.250854173186269]},"properties":{"FID":52,"NameKey":"Lantzville - British Columbia","FREQUENCY":1}}]}