{"type":"FeatureCollection","features":[{"type":"Feature","id":0,"geometry":{"type":"Point","coordinates":[-101.77140045168582,54.066379546865249]},"properties":{"FID":0,"Shape_Leng":373391114.77899998,"NameKey":"Canada","FREQUENCY":171}},{"type":"Feature","id":1,"geometry":{"type":"Point","coordinates":[-102.72656861356161,24.193266591845308]},"properties":{"FID":1,"Shape_Leng":36894624.407499999,"NameKey":"Mexico","FREQUENCY":2}},{"type":"Feature","id":2,"geometry":{"type":"Point","coordinates":[-99.123995999999991,40.002130000000065]},"properties":{"FID":2,"Shape_Leng":66506972.055100001,"NameKey":"United States","FREQUENCY":5}}]}