{"type":"FeatureCollection","features":[{"type":"Feature","id":0,"geometry":{"type":"Point","coordinates":[-99.087941991732407,19.238319585788474]},"properties":{"FID":0,"NameKey":"Distrito Federal","FREQUENCY":1}},{"type":"Feature","id":1,"geometry":{"type":"Point","coordinates":[-107.49266323316726,24.992551510180135]},"properties":{"FID":1,"NameKey":"Sinaloa","FREQUENCY":1}},{"type":"Feature","id":2,"geometry":{"type":"Point","coordinates":[-63.326070192143959,45.150187306628879]},"properties":{"FID":2,"NameKey":"Nova Scotia","FREQUENCY":1}},{"type":"Feature","id":3,"geometry":{"type":"Point","coordinates":[-114.50705457358754,55.163614775242081]},"properties":{"FID":3,"NameKey":"Alberta","FREQUENCY":4}},{"type":"Feature","id":4,"geometry":{"type":"Point","coordinates":[-124.73662987883949,54.767918912284472]},"properties":{"FID":4,"NameKey":"British Columbia","FREQUENCY":157}},{"type":"Feature","id":5,"geometry":{"type":"Point","coordinates":[-66.380406729134165,46.627187321651036]},"properties":{"FID":5,"NameKey":"New Brunswick","FREQUENCY":1}},{"type":"Feature","id":6,"geometry":{"type":"Point","coordinates":[-86.072960564182608,50.451016436572672]},"properties":{"FID":6,"NameKey":"Ontario","FREQUENCY":6}},{"type":"Feature","id":7,"geometry":{"type":"Point","coordinates":[-119.00123388970758,66.34936241184937]},"properties":{"FID":7,"NameKey":"Northwest Territories","FREQUENCY":1}},{"type":"Feature","id":8,"geometry":{"type":"Point","coordinates":[-94.198338477396305,46.349268631306245]},"properties":{"FID":8,"NameKey":"Minnesota","FREQUENCY":2}},{"type":"Feature","id":9,"geometry":{"type":"Point","coordinates":[-105.54782110178303,38.998531624930934]},"properties":{"FID":9,"NameKey":"Colorado","FREQUENCY":2}}]}