{"type":"FeatureCollection","features":[{"type":"Feature","id":0,"geometry":{"type":"Point","coordinates":[-79.39043460389739,43.727085542343445]},"properties":{"FID":0,"NameKey":"City Of Toronto - Ontario","FREQUENCY":5}},{"type":"Feature","id":1,"geometry":{"type":"Point","coordinates":[-79.438666986248634,44.017353451616934]},"properties":{"FID":1,"NameKey":"Regional Municipality Of York - Ontario","FREQUENCY":1}},{"type":"Feature","id":2,"geometry":{"type":"Point","coordinates":[-114.06867409761759,50.629940374671143]},"properties":{"FID":2,"NameKey":"Foothills County - Alberta","FREQUENCY":1}},{"type":"Feature","id":3,"geometry":{"type":"Point","coordinates":[-114.05222838328341,51.035028873329708]},"properties":{"FID":3,"NameKey":"City Of Calgary - Alberta","FREQUENCY":1}},{"type":"Feature","id":4,"geometry":{"type":"Point","coordinates":[-119.45822865965738,49.948553706779528]},"properties":{"FID":4,"NameKey":"Regional District of Central Okanagan - British Columbia","FREQUENCY":3}},{"type":"Feature","id":5,"geometry":{"type":"Point","coordinates":[-121.8799371280361,49.551105775449685]},"properties":{"FID":5,"NameKey":"Fraser Valley Regional District - British Columbia","FREQUENCY":9}},{"type":"Feature","id":6,"geometry":{"type":"Point","coordinates":[-122.94740355820274,49.258155090698651]},"properties":{"FID":6,"NameKey":"Metro Vancouver Regional District - British Columbia","FREQUENCY":79}},{"type":"Feature","id":7,"geometry":{"type":"Point","coordinates":[-120.38615691566042,50.81880325244046]},"properties":{"FID":7,"NameKey":"Thompson Nicola Regional District - British Columbia","FREQUENCY":6}},{"type":"Feature","id":8,"geometry":{"type":"Point","coordinates":[-117.29818447550061,49.852178586462095]},"properties":{"FID":8,"NameKey":"Regional District of Central Kootenay - British Columbia","FREQUENCY":1}},{"type":"Feature","id":9,"geometry":{"type":"Point","coordinates":[-123.15959395150902,50.019689335040546]},"properties":{"FID":9,"NameKey":"Squamish-Lillooet Regional District - British Columbia","FREQUENCY":3}},{"type":"Feature","id":10,"geometry":{"type":"Point","coordinates":[-118.78454741219711,50.366678564073695]},"properties":{"FID":10,"NameKey":"Regional District of North Okanagan - British Columbia","FREQUENCY":1}},{"type":"Feature","id":11,"geometry":{"type":"Point","coordinates":[-123.40979867477775,48.491642944389923]},"properties":{"FID":11,"NameKey":"Capital Regional District - British Columbia","FREQUENCY":16}},{"type":"Feature","id":12,"geometry":{"type":"Point","coordinates":[-125.02780823904524,49.661877334737]},"properties":{"FID":12,"NameKey":"Comox Valley Regional District - British Columbia","FREQUENCY":5}},{"type":"Feature","id":13,"geometry":{"type":"Point","coordinates":[-123.73980137797558,48.808851500158539]},"properties":{"FID":13,"NameKey":"Cowichan Valley Regional District - British Columbia","FREQUENCY":7}},{"type":"Feature","id":14,"geometry":{"type":"Point","coordinates":[-117.95710207602318,51.38564592075268]},"properties":{"FID":14,"NameKey":"Regional District of Columbia-Shuswap - British Columbia","FREQUENCY":1}},{"type":"Feature","id":15,"geometry":{"type":"Point","coordinates":[-115.62923405603547,49.967301615327806]},"properties":{"FID":15,"NameKey":"Regional District of East Kootenay - British Columbia","FREQUENCY":3}},{"type":"Feature","id":16,"geometry":{"type":"Point","coordinates":[-124.20514675482694,49.224712272434466]},"properties":{"FID":16,"NameKey":"Regional District of Nanaimo - British Columbia","FREQUENCY":1}},{"type":"Feature","id":17,"geometry":{"type":"Point","coordinates":[-124.43288248853571,49.81285065146124]},"properties":{"FID":17,"NameKey":"Powell River Regional District - British Columbia","FREQUENCY":1}},{"type":"Feature","id":18,"geometry":{"type":"Point","coordinates":[-123.76984655207139,49.769270413044111]},"properties":{"FID":18,"NameKey":"Sunshine Coast Regional District - British Columbia","FREQUENCY":2}},{"type":"Feature","id":19,"geometry":{"type":"Point","coordinates":[-125.64559205654362,50.320106336312705]},"properties":{"FID":19,"NameKey":"Strathcona Regional District - British Columbia","FREQUENCY":1}},{"type":"Feature","id":20,"geometry":{"type":"Point","coordinates":[-105.64436925821963,39.689108764888822]},"properties":{"FID":20,"NameKey":"Clear Creek - Colorado","FREQUENCY":1}},{"type":"Feature","id":21,"geometry":{"type":"Point","coordinates":[-105.35771591200077,40.092466214907184]},"properties":{"FID":21,"NameKey":"Boulder - Colorado","FREQUENCY":1}},{"type":"Feature","id":22,"geometry":{"type":"Point","coordinates":[-92.461473441184879,47.589870582128491]},"properties":{"FID":22,"NameKey":"St. Louis - Minnesota","FREQUENCY":2}},{"type":"Feature","id":23,"geometry":{"type":"Point","coordinates":[-99.10371891336797,19.451089278590302]},"properties":{"FID":23,"NameKey":"Ciudad de Mexico","FREQUENCY":1}},{"type":"Feature","id":24,"geometry":{"type":"Point","coordinates":[-114.36912996819315,62.453592080486786]},"properties":{"FID":24,"NameKey":"North Slave Region - Northwest Territories","FREQUENCY":1}},{"type":"Feature","id":25,"geometry":{"type":"Point","coordinates":[-66.982529611619967,46.088775988518584]},"properties":{"FID":25,"NameKey":"York - New Brunswick","FREQUENCY":1}},{"type":"Feature","id":26,"geometry":{"type":"Point","coordinates":[-63.14801554067126,44.867418126393432]},"properties":{"FID":26,"NameKey":"Halifax - Nova Scotia","FREQUENCY":1}},{"type":"Feature","id":27,"geometry":{"type":"Point","coordinates":[-106.41318581117979,23.258369763785172]},"properties":{"FID":27,"NameKey":"Mazatlan","FREQUENCY":1}}]}